<?xml version='1.0' encoding='UTF-8'?>
<gpx version="1.1" creator="https://www.komoot.de" xmlns="http://www.topografix.com/GPX/1/1" xmlns:xsi="http://www.w3.org/2001/XMLSchema-instance" xsi:schemaLocation="http://www.topografix.com/GPX/1/1 http://www.topografix.com/GPX/1/1/gpx.xsd">
  <metadata>
    <name>Struckteich &amp; Zarpener Wohld</name>
    <author>
      <link href="https://www.komoot.de">
        <text>komoot</text>
        <type>text/html</type>
      </link>
    </author>
  </metadata>
  <wpt lat="53.871718" lon="10.510534">
    <name>Hundebadestelle</name>
    <sym>Flag, Blue</sym>
  </wpt>
  <wpt lat="53.867824" lon="10.501619">
    <name>Silber- und Graureiher am Struckteich</name>
    <sym>Flag, Blue</sym>
  </wpt>
  <trk>
    <name>Struckteich &amp; Zarpener Wohld</name>
    <type>hike</type>
    <trkseg>
      <trkpt lat="53.871241" lon="10.517978">
        <ele>19.482467</ele>
        <time>2026-07-24T19:58:14.286Z</time>
      </trkpt>
      <trkpt lat="53.871291" lon="10.517816">
        <ele>19.482467</ele>
        <time>2026-07-24T19:58:25.235Z</time>
      </trkpt>
      <trkpt lat="53.871110" lon="10.517503">
        <ele>19.902761</ele>
        <time>2026-07-24T19:58:53.631Z</time>
      </trkpt>
      <trkpt lat="53.870561" lon="10.516563">
        <ele>18.636304</ele>
        <time>2026-07-24T20:00:14.730Z</time>
      </trkpt>
      <trkpt lat="53.870378" lon="10.516304">
        <ele>18.271499</ele>
        <time>2026-07-24T20:00:39.395Z</time>
      </trkpt>
      <trkpt lat="53.870308" lon="10.516209">
        <ele>18.149348</ele>
        <time>2026-07-24T20:00:48.622Z</time>
      </trkpt>
      <trkpt lat="53.869853" lon="10.515621">
        <ele>17.468709</ele>
        <time>2026-07-24T20:01:46.844Z</time>
      </trkpt>
      <trkpt lat="53.869565" lon="10.515138">
        <ele>16.154001</ele>
        <time>2026-07-24T20:02:31.273Z</time>
      </trkpt>
      <trkpt lat="53.869819" lon="10.514711">
        <ele>16.986629</ele>
        <time>2026-07-24T20:03:11.282Z</time>
      </trkpt>
      <trkpt lat="53.870434" lon="10.513766">
        <ele>22.163135</ele>
        <time>2026-07-24T20:04:52.449Z</time>
      </trkpt>
      <trkpt lat="53.870923" lon="10.512821">
        <ele>26.204746</ele>
        <time>2026-07-24T20:06:21.311Z</time>
      </trkpt>
      <trkpt lat="53.871119" lon="10.512394">
        <ele>25.521611</ele>
        <time>2026-07-24T20:06:53.959Z</time>
      </trkpt>
      <trkpt lat="53.871609" lon="10.511032">
        <ele>18.745364</ele>
        <time>2026-07-24T20:08:43.083Z</time>
      </trkpt>
      <trkpt lat="53.871676" lon="10.510701">
        <ele>17.677480</ele>
        <time>2026-07-24T20:09:06.023Z</time>
      </trkpt>
      <trkpt lat="53.871511" lon="10.510645">
        <ele>17.252105</ele>
        <time>2026-07-24T20:09:23.678Z</time>
      </trkpt>
      <trkpt lat="53.871348" lon="10.510592">
        <ele>17.242576</ele>
        <time>2026-07-24T20:09:40.579Z</time>
      </trkpt>
      <trkpt lat="53.871113" lon="10.510455">
        <ele>17.677813</ele>
        <time>2026-07-24T20:10:07.252Z</time>
      </trkpt>
      <trkpt lat="53.870868" lon="10.510203">
        <ele>18.110523</ele>
        <time>2026-07-24T20:10:37.535Z</time>
      </trkpt>
      <trkpt lat="53.870750" lon="10.509955">
        <ele>18.396771</ele>
        <time>2026-07-24T20:10:57.461Z</time>
      </trkpt>
      <trkpt lat="53.870525" lon="10.509156">
        <ele>19.189758</ele>
        <time>2026-07-24T20:11:52.434Z</time>
      </trkpt>
      <trkpt lat="53.870488" lon="10.509032">
        <ele>19.308251</ele>
        <time>2026-07-24T20:12:01.208Z</time>
      </trkpt>
      <trkpt lat="53.870517" lon="10.508552">
        <ele>19.247211</ele>
        <time>2026-07-24T20:12:29.952Z</time>
      </trkpt>
      <trkpt lat="53.870603" lon="10.508056">
        <ele>18.840267</ele>
        <time>2026-07-24T20:13:01.466Z</time>
      </trkpt>
      <trkpt lat="53.870594" lon="10.507689">
        <ele>18.601592</ele>
        <time>2026-07-24T20:13:23.580Z</time>
      </trkpt>
      <trkpt lat="53.870521" lon="10.507331">
        <ele>18.422348</ele>
        <time>2026-07-24T20:13:46.245Z</time>
      </trkpt>
      <trkpt lat="53.870221" lon="10.506361">
        <ele>17.984038</ele>
        <time>2026-07-24T20:14:51.755Z</time>
      </trkpt>
      <trkpt lat="53.869976" lon="10.505254">
        <ele>17.502241</ele>
        <time>2026-07-24T20:16:02.659Z</time>
      </trkpt>
      <trkpt lat="53.869407" lon="10.504674">
        <ele>17.748423</ele>
        <time>2026-07-24T20:17:10.268Z</time>
      </trkpt>
      <trkpt lat="53.869297" lon="10.504503">
        <ele>17.901106</ele>
        <time>2026-07-24T20:17:25.705Z</time>
      </trkpt>
      <trkpt lat="53.869217" lon="10.504289">
        <ele>18.113996</ele>
        <time>2026-07-24T20:17:41.318Z</time>
      </trkpt>
      <trkpt lat="53.868221" lon="10.502583">
        <ele>20.381310</ele>
        <time>2026-07-24T20:20:11.332Z</time>
      </trkpt>
      <trkpt lat="53.868142" lon="10.502517">
        <ele>20.428790</ele>
        <time>2026-07-24T20:20:20.455Z</time>
      </trkpt>
      <trkpt lat="53.867987" lon="10.502144">
        <ele>20.500000</ele>
        <time>2026-07-24T20:20:47.468Z</time>
      </trkpt>
      <trkpt lat="53.867968" lon="10.502000">
        <ele>20.500000</ele>
        <time>2026-07-24T20:20:56.249Z</time>
      </trkpt>
      <trkpt lat="53.867826" lon="10.501617">
        <ele>20.500000</ele>
        <time>2026-07-24T20:21:23.063Z</time>
      </trkpt>
      <trkpt lat="53.867656" lon="10.501163">
        <ele>20.606800</ele>
        <time>2026-07-24T20:21:54.815Z</time>
      </trkpt>
      <trkpt lat="53.867393" lon="10.500628">
        <ele>21.380227</ele>
        <time>2026-07-24T20:22:38.798Z</time>
      </trkpt>
      <trkpt lat="53.867297" lon="10.500597">
        <ele>21.652755</ele>
        <time>2026-07-24T20:22:49.701Z</time>
      </trkpt>
      <trkpt lat="53.867156" lon="10.500947">
        <ele>22.564076</ele>
        <time>2026-07-24T20:23:18.203Z</time>
      </trkpt>
      <trkpt lat="53.867056" lon="10.501117">
        <ele>22.891916</ele>
        <time>2026-07-24T20:23:33.625Z</time>
      </trkpt>
      <trkpt lat="53.867036" lon="10.500800">
        <ele>23.187093</ele>
        <time>2026-07-24T20:23:53.252Z</time>
      </trkpt>
      <trkpt lat="53.867000" lon="10.500617">
        <ele>23.295269</ele>
        <time>2026-07-24T20:24:04.988Z</time>
      </trkpt>
      <trkpt lat="53.866928" lon="10.500435">
        <ele>23.422911</ele>
        <time>2026-07-24T20:24:18.250Z</time>
      </trkpt>
      <trkpt lat="53.866811" lon="10.500231">
        <ele>23.616841</ele>
        <time>2026-07-24T20:24:35.749Z</time>
      </trkpt>
      <trkpt lat="53.866742" lon="10.500009">
        <ele>23.833269</ele>
        <time>2026-07-24T20:24:51.464Z</time>
      </trkpt>
      <trkpt lat="53.866749" lon="10.499786">
        <ele>24.131311</ele>
        <time>2026-07-24T20:25:05.574Z</time>
      </trkpt>
      <trkpt lat="53.866803" lon="10.499540">
        <ele>24.541138</ele>
        <time>2026-07-24T20:25:22.371Z</time>
      </trkpt>
      <trkpt lat="53.867051" lon="10.498840">
        <ele>26.298885</ele>
        <time>2026-07-24T20:26:16.749Z</time>
      </trkpt>
      <trkpt lat="53.867312" lon="10.498356">
        <ele>28.306511</ele>
        <time>2026-07-24T20:27:02.528Z</time>
      </trkpt>
      <trkpt lat="53.867444" lon="10.497964">
        <ele>29.775859</ele>
        <time>2026-07-24T20:27:34.469Z</time>
      </trkpt>
      <trkpt lat="53.867611" lon="10.497025">
        <ele>32.649716</ele>
        <time>2026-07-24T20:28:42.655Z</time>
      </trkpt>
      <trkpt lat="53.867679" lon="10.496345">
        <ele>33.309211</ele>
        <time>2026-07-24T20:29:25.970Z</time>
      </trkpt>
      <trkpt lat="53.867896" lon="10.496415">
        <ele>33.051648</ele>
        <time>2026-07-24T20:29:48.993Z</time>
      </trkpt>
      <trkpt lat="53.868192" lon="10.496510">
        <ele>32.319099</ele>
        <time>2026-07-24T20:30:20.650Z</time>
      </trkpt>
      <trkpt lat="53.868429" lon="10.496437">
        <ele>31.808635</ele>
        <time>2026-07-24T20:30:45.841Z</time>
      </trkpt>
      <trkpt lat="53.868687" lon="10.496251">
        <ele>31.378575</ele>
        <time>2026-07-24T20:31:14.921Z</time>
      </trkpt>
      <trkpt lat="53.869090" lon="10.495717">
        <ele>31.121905</ele>
        <time>2026-07-24T20:32:06.498Z</time>
      </trkpt>
      <trkpt lat="53.869309" lon="10.495561">
        <ele>30.966815</ele>
        <time>2026-07-24T20:32:30.299Z</time>
      </trkpt>
      <trkpt lat="53.869470" lon="10.495540">
        <ele>30.757175</ele>
        <time>2026-07-24T20:32:47.284Z</time>
      </trkpt>
      <trkpt lat="53.869752" lon="10.495112">
        <ele>30.280244</ele>
        <time>2026-07-24T20:33:26.340Z</time>
      </trkpt>
      <trkpt lat="53.870024" lon="10.494764">
        <ele>30.883369</ele>
        <time>2026-07-24T20:34:02.203Z</time>
      </trkpt>
      <trkpt lat="53.870210" lon="10.494733">
        <ele>31.388222</ele>
        <time>2026-07-24T20:34:23.992Z</time>
      </trkpt>
      <trkpt lat="53.870813" lon="10.494433">
        <ele>32.622667</ele>
        <time>2026-07-24T20:35:30.406Z</time>
      </trkpt>
      <trkpt lat="53.871743" lon="10.494150">
        <ele>34.648151</ele>
        <time>2026-07-24T20:37:12.215Z</time>
      </trkpt>
      <trkpt lat="53.872098" lon="10.493857">
        <ele>35.740460</ele>
        <time>2026-07-24T20:37:55.890Z</time>
      </trkpt>
      <trkpt lat="53.872712" lon="10.493974">
        <ele>36.538798</ele>
        <time>2026-07-24T20:39:00.977Z</time>
      </trkpt>
      <trkpt lat="53.873583" lon="10.494541">
        <ele>34.418826</ele>
        <time>2026-07-24T20:40:38.983Z</time>
      </trkpt>
      <trkpt lat="53.874252" lon="10.494975">
        <ele>33.162096</ele>
        <time>2026-07-24T20:41:53.350Z</time>
      </trkpt>
      <trkpt lat="53.875183" lon="10.495233">
        <ele>32.656604</ele>
        <time>2026-07-24T20:43:28.933Z</time>
      </trkpt>
      <trkpt lat="53.875546" lon="10.495430">
        <ele>32.856554</ele>
        <time>2026-07-24T20:44:07.959Z</time>
      </trkpt>
      <trkpt lat="53.876797" lon="10.495875">
        <ele>35.517185</ele>
        <time>2026-07-24T20:46:25.543Z</time>
      </trkpt>
      <trkpt lat="53.876955" lon="10.495931">
        <ele>35.759062</ele>
        <time>2026-07-24T20:46:42.794Z</time>
      </trkpt>
      <trkpt lat="53.877831" lon="10.496944">
        <ele>37.028406</ele>
        <time>2026-07-24T20:48:32.572Z</time>
      </trkpt>
      <trkpt lat="53.878560" lon="10.497206">
        <ele>40.097687</ele>
        <time>2026-07-24T20:49:56.820Z</time>
      </trkpt>
      <trkpt lat="53.879095" lon="10.497177">
        <ele>44.822152</ele>
        <time>2026-07-24T20:51:07.572Z</time>
      </trkpt>
      <trkpt lat="53.879619" lon="10.496694">
        <ele>52.184212</ele>
        <time>2026-07-24T20:52:35.997Z</time>
      </trkpt>
      <trkpt lat="53.879841" lon="10.496124">
        <ele>56.375475</ele>
        <time>2026-07-24T20:53:30.756Z</time>
      </trkpt>
      <trkpt lat="53.879904" lon="10.495255">
        <ele>60.154311</ele>
        <time>2026-07-24T20:54:34.997Z</time>
      </trkpt>
      <trkpt lat="53.879893" lon="10.494724">
        <ele>61.631985</ele>
        <time>2026-07-24T20:55:11.189Z</time>
      </trkpt>
      <trkpt lat="53.879978" lon="10.494271">
        <ele>62.282851</ele>
        <time>2026-07-24T20:55:41.320Z</time>
      </trkpt>
      <trkpt lat="53.880240" lon="10.492874">
        <ele>63.894882</ele>
        <time>2026-07-24T20:57:13.419Z</time>
      </trkpt>
      <trkpt lat="53.880560" lon="10.491712">
        <ele>65.154993</ele>
        <time>2026-07-24T20:58:33.986Z</time>
      </trkpt>
      <trkpt lat="53.880866" lon="10.491910">
        <ele>65.537285</ele>
        <time>2026-07-24T20:59:07.648Z</time>
      </trkpt>
      <trkpt lat="53.881776" lon="10.492390">
        <ele>67.361967</ele>
        <time>2026-07-24T21:00:49.673Z</time>
      </trkpt>
      <trkpt lat="53.882037" lon="10.492562">
        <ele>67.691538</ele>
        <time>2026-07-24T21:01:19.044Z</time>
      </trkpt>
      <trkpt lat="53.882326" lon="10.492822">
        <ele>67.948976</ele>
        <time>2026-07-24T21:01:52.672Z</time>
      </trkpt>
      <trkpt lat="53.882573" lon="10.492993">
        <ele>67.815970</ele>
        <time>2026-07-24T21:02:19.525Z</time>
      </trkpt>
      <trkpt lat="53.882532" lon="10.493390">
        <ele>67.116242</ele>
        <time>2026-07-24T21:02:44.715Z</time>
      </trkpt>
      <trkpt lat="53.882517" lon="10.493535">
        <ele>66.659375</ele>
        <time>2026-07-24T21:02:54.106Z</time>
      </trkpt>
      <trkpt lat="53.881570" lon="10.497628">
        <ele>53.042048</ele>
        <time>2026-07-24T21:07:41.526Z</time>
      </trkpt>
      <trkpt lat="53.881561" lon="10.497744">
        <ele>52.831098</ele>
        <time>2026-07-24T21:07:48.944Z</time>
      </trkpt>
      <trkpt lat="53.881695" lon="10.498047">
        <ele>52.322879</ele>
        <time>2026-07-24T21:08:12.518Z</time>
      </trkpt>
      <trkpt lat="53.882256" lon="10.498829">
        <ele>51.950856</ele>
        <time>2026-07-24T21:09:25.805Z</time>
      </trkpt>
      <trkpt lat="53.882546" lon="10.499301">
        <ele>51.933342</ele>
        <time>2026-07-24T21:10:06.910Z</time>
      </trkpt>
      <trkpt lat="53.883041" lon="10.499969">
        <ele>50.748780</ele>
        <time>2026-07-24T21:11:13.022Z</time>
      </trkpt>
      <trkpt lat="53.883178" lon="10.500250">
        <ele>50.059665</ele>
        <time>2026-07-24T21:11:35.834Z</time>
      </trkpt>
      <trkpt lat="53.883104" lon="10.500781">
        <ele>48.489291</ele>
        <time>2026-07-24T21:12:10.929Z</time>
      </trkpt>
      <trkpt lat="53.882750" lon="10.502297">
        <ele>40.975221</ele>
        <time>2026-07-24T21:14:02.647Z</time>
      </trkpt>
      <trkpt lat="53.882355" lon="10.503123">
        <ele>37.087943</ele>
        <time>2026-07-24T21:15:13.557Z</time>
      </trkpt>
      <trkpt lat="53.882260" lon="10.503493">
        <ele>36.345481</ele>
        <time>2026-07-24T21:15:38.781Z</time>
      </trkpt>
      <trkpt lat="53.882232" lon="10.504357">
        <ele>36.117773</ele>
        <time>2026-07-24T21:16:29.985Z</time>
      </trkpt>
      <trkpt lat="53.882178" lon="10.504877">
        <ele>35.911388</ele>
        <time>2026-07-24T21:17:01.358Z</time>
      </trkpt>
      <trkpt lat="53.881852" lon="10.506561">
        <ele>32.101621</ele>
        <time>2026-07-24T21:18:54.307Z</time>
      </trkpt>
      <trkpt lat="53.881599" lon="10.507274">
        <ele>30.331221</ele>
        <time>2026-07-24T21:19:47.327Z</time>
      </trkpt>
      <trkpt lat="53.881341" lon="10.507709">
        <ele>30.110863</ele>
        <time>2026-07-24T21:20:24.092Z</time>
      </trkpt>
      <trkpt lat="53.881134" lon="10.508264">
        <ele>30.277957</ele>
        <time>2026-07-24T21:21:05.452Z</time>
      </trkpt>
      <trkpt lat="53.880242" lon="10.511927">
        <ele>25.544571</ele>
        <time>2026-07-24T21:25:10.338Z</time>
      </trkpt>
      <trkpt lat="53.880078" lon="10.512191">
        <ele>26.250873</ele>
        <time>2026-07-24T21:25:35.789Z</time>
      </trkpt>
      <trkpt lat="53.879862" lon="10.512438">
        <ele>27.493040</ele>
        <time>2026-07-24T21:26:06.557Z</time>
      </trkpt>
      <trkpt lat="53.879704" lon="10.512612">
        <ele>28.389321</ele>
        <time>2026-07-24T21:26:28.601Z</time>
      </trkpt>
      <trkpt lat="53.879519" lon="10.512736">
        <ele>29.265917</ele>
        <time>2026-07-24T21:26:51.618Z</time>
      </trkpt>
      <trkpt lat="53.878899" lon="10.512908">
        <ele>31.621591</ele>
        <time>2026-07-24T21:28:02.916Z</time>
      </trkpt>
      <trkpt lat="53.878738" lon="10.512897">
        <ele>32.045277</ele>
        <time>2026-07-24T21:28:20.445Z</time>
      </trkpt>
      <trkpt lat="53.878305" lon="10.512752">
        <ele>32.632162</ele>
        <time>2026-07-24T21:29:06.598Z</time>
      </trkpt>
      <trkpt lat="53.878127" lon="10.512757">
        <ele>32.673588</ele>
        <time>2026-07-24T21:29:24.553Z</time>
      </trkpt>
      <trkpt lat="53.876531" lon="10.513202">
        <ele>31.310596</ele>
        <time>2026-07-24T21:32:09.548Z</time>
      </trkpt>
      <trkpt lat="53.876318" lon="10.513280">
        <ele>31.045336</ele>
        <time>2026-07-24T21:32:31.468Z</time>
      </trkpt>
      <trkpt lat="53.875632" lon="10.513554">
        <ele>28.755978</ele>
        <time>2026-07-24T21:33:47.352Z</time>
      </trkpt>
      <trkpt lat="53.875327" lon="10.513514">
        <ele>28.614824</ele>
        <time>2026-07-24T21:34:18.287Z</time>
      </trkpt>
      <trkpt lat="53.874996" lon="10.513239">
        <ele>29.643225</ele>
        <time>2026-07-24T21:34:59.747Z</time>
      </trkpt>
      <trkpt lat="53.874894" lon="10.513201">
        <ele>29.927466</ele>
        <time>2026-07-24T21:35:11.272Z</time>
      </trkpt>
      <trkpt lat="53.874772" lon="10.513248">
        <ele>29.951027</ele>
        <time>2026-07-24T21:35:23.915Z</time>
      </trkpt>
      <trkpt lat="53.874726" lon="10.513282">
        <ele>29.879932</ele>
        <time>2026-07-24T21:35:29.154Z</time>
      </trkpt>
      <trkpt lat="53.874513" lon="10.513734">
        <ele>28.995629</ele>
        <time>2026-07-24T21:36:05.183Z</time>
      </trkpt>
      <trkpt lat="53.874262" lon="10.514242">
        <ele>26.844452</ele>
        <time>2026-07-24T21:36:48.799Z</time>
      </trkpt>
      <trkpt lat="53.874078" lon="10.514619">
        <ele>25.042437</ele>
        <time>2026-07-24T21:37:21.689Z</time>
      </trkpt>
      <trkpt lat="53.873874" lon="10.515056">
        <ele>24.028805</ele>
        <time>2026-07-24T21:37:56.602Z</time>
      </trkpt>
      <trkpt lat="53.873763" lon="10.515195">
        <ele>23.801194</ele>
        <time>2026-07-24T21:38:10.675Z</time>
      </trkpt>
      <trkpt lat="53.873398" lon="10.515541">
        <ele>23.472720</ele>
        <time>2026-07-24T21:38:53.160Z</time>
      </trkpt>
      <trkpt lat="53.873284" lon="10.515646">
        <ele>23.265236</ele>
        <time>2026-07-24T21:39:06.472Z</time>
      </trkpt>
      <trkpt lat="53.873035" lon="10.515933">
        <ele>22.682363</ele>
        <time>2026-07-24T21:39:37.871Z</time>
      </trkpt>
      <trkpt lat="53.872765" lon="10.516321">
        <ele>21.730438</ele>
        <time>2026-07-24T21:40:15.172Z</time>
      </trkpt>
      <trkpt lat="53.872436" lon="10.516840">
        <ele>20.213194</ele>
        <time>2026-07-24T21:41:03.535Z</time>
      </trkpt>
      <trkpt lat="53.871816" lon="10.517825">
        <ele>18.744481</ele>
        <time>2026-07-24T21:42:31.720Z</time>
      </trkpt>
      <trkpt lat="53.871750" lon="10.517988">
        <ele>18.765455</ele>
        <time>2026-07-24T21:42:43.711Z</time>
      </trkpt>
      <trkpt lat="53.871725" lon="10.518124">
        <ele>18.868486</ele>
        <time>2026-07-24T21:42:52.749Z</time>
      </trkpt>
      <trkpt lat="53.871633" lon="10.518114">
        <ele>19.068392</ele>
        <time>2026-07-24T21:43:02.754Z</time>
      </trkpt>
      <trkpt lat="53.871418" lon="10.518179">
        <ele>19.363271</ele>
        <time>2026-07-24T21:43:26.216Z</time>
      </trkpt>
      <trkpt lat="53.871407" lon="10.518060">
        <ele>19.419627</ele>
        <time>2026-07-24T21:43:33.333Z</time>
      </trkpt>
      <trkpt lat="53.871323" lon="10.517876">
        <ele>19.438553</ele>
        <time>2026-07-24T21:43:47.360Z</time>
      </trkpt>
      <trkpt lat="53.871291" lon="10.517816">
        <ele>19.438553</ele>
        <time>2026-07-24T21:43:52.174Z</time>
      </trkpt>
      <trkpt lat="53.871241" lon="10.517978">
        <ele>19.438553</ele>
        <time>2026-07-24T21:44:03.062Z</time>
      </trkpt>
    </trkseg>
  </trk>
</gpx>